{
  "type": "FeatureCollection",
  "features": [
    {
      "type": "Feature",
      "properties": {
        "norad_id": 66620,
        "name": "STARLINK-35936",
        "group": "last-30-days",
        "lat": 47.35522739678229,
        "lon": -18.58975905195244,
        "alt_km": 339.8233358632315,
        "timestamp": "2025-12-06T20:37:54.814210+00:00",
        "meta_object_name": "STARLINK-35936",
        "meta_object_id": "2025-271D",
        "meta_epoch": "2025-12-06T14:00:01.999872",
        "meta_mean_motion": 15.74132334,
        "meta_eccentricity": 0.00012314,
        "meta_inclination": 53.1582,
        "meta_ra_of_asc_node": 217.2806,
        "meta_arg_of_pericenter": 93.8758,
        "meta_mean_anomaly": 252.5244,
        "meta_ephemeris_type": 0,
        "meta_classification_type": "U",
        "meta_norad_cat_id": 66620,
        "meta_element_set_no": 999,
        "meta_rev_at_epoch": 325,
        "meta_bstar": 0.00062759381,
        "meta_mean_motion_dot": 0.00092066,
        "meta_mean_motion_ddot": 0,
        "tle_line1": "1 66620U 25271D   25340.58335648  .00092066  00000+0  62759-3 0  9997",
        "tle_line2": "2 66620  53.1582 217.2806 0001231  93.8758 252.5244 15.74132334  3256"
      },
      "geometry": {
        "type": "Point",
        "coordinates": [
          -18.58975905195244,
          47.35522739678229
        ]
      }
    },
    {
      "type": "Feature",
      "properties": {
        "norad_id": 66621,
        "name": "STARLINK-35847",
        "group": "last-30-days",
        "lat": 9.429056716106878,
        "lon": 28.640118675759144,
        "alt_km": 346.3449450047865,
        "timestamp": "2025-12-06T20:37:54.814221+00:00",
        "meta_object_name": "STARLINK-35847",
        "meta_object_id": "2025-271E",
        "meta_epoch": "2025-12-06T14:00:01.999872",
        "meta_mean_motion": 15.74156603,
        "meta_eccentricity": 0.00010648,
        "meta_inclination": 53.1579,
        "meta_ra_of_asc_node": 217.1646,
        "meta_arg_of_pericenter": 97.3895,
        "meta_mean_anomaly": 303.9533,
        "meta_ephemeris_type": 0,
        "meta_classification_type": "U",
        "meta_norad_cat_id": 66621,
        "meta_element_set_no": 999,
        "meta_rev_at_epoch": 325,
        "meta_bstar": 0.00019447,
        "meta_mean_motion_dot": 0.00027906,
        "meta_mean_motion_ddot": 0,
        "tle_line1": "1 66621U 25271E   25340.58335648  .00027906  00000+0  19447-3 0  9995",
        "tle_line2": "2 66621  53.1579 217.1646 0001064  97.3895 303.9533 15.74156603  3256"
      },
      "geometry": {
        "type": "Point",
        "coordinates": [
          28.640118675759144,
          9.429056716106878
        ]
      }
    },
    {
      "type": "Feature",
      "properties": {
        "norad_id": 66622,
        "name": "STARLINK-35950",
        "group": "last-30-days",
        "lat": 43.381392332766616,
        "lon": -9.226633784219072,
        "alt_km": 340.3580846141185,
        "timestamp": "2025-12-06T20:37:54.814231+00:00",
        "meta_object_name": "STARLINK-35950",
        "meta_object_id": "2025-271F",
        "meta_epoch": "2025-12-06T14:00:01.999872",
        "meta_mean_motion": 15.74152255,
        "meta_eccentricity": 0.00014646,
        "meta_inclination": 53.158,
        "meta_ra_of_asc_node": 217.2642,
        "meta_arg_of_pericenter": 90.3222,
        "meta_mean_anomaly": 263.7429,
        "meta_ephemeris_type": 0,
        "meta_classification_type": "U",
        "meta_norad_cat_id": 66622,
        "meta_element_set_no": 999,
        "meta_rev_at_epoch": 325,
        "meta_bstar": 0.00030667565,
        "meta_mean_motion_dot": 0.0004445,
        "meta_mean_motion_ddot": 0,
        "tle_line1": "1 66622U 25271F   25340.58335648  .00044450  00000+0  30668-3 0  9997",
        "tle_line2": "2 66622  53.1580 217.2642 0001464  90.3222 263.7429 15.74152255  3253"
      },
      "geometry": {
        "type": "Point",
        "coordinates": [
          -9.226633784219072,
          43.381392332766616
        ]
      }
    },
    {
      "type": "Feature",
      "properties": {
        "norad_id": 66623,
        "name": "STARLINK-35920",
        "group": "last-30-days",
        "lat": 41.17250125204067,
        "lon": -5.092891498899343,
        "alt_km": 340.6523161601526,
        "timestamp": "2025-12-06T20:37:54.814276+00:00",
        "meta_object_name": "STARLINK-35920",
        "meta_object_id": "2025-271G",
        "meta_epoch": "2025-12-06T14:00:01.999872",
        "meta_mean_motion": 15.74111426,
        "meta_eccentricity": 0.0001211,
        "meta_inclination": 53.1575,
        "meta_ra_of_asc_node": 217.2564,
        "meta_arg_of_pericenter": 125.1816,
        "meta_mean_anomaly": 232.6674,
        "meta_ephemeris_type": 0,
        "meta_classification_type": "U",
        "meta_norad_cat_id": 66623,
        "meta_element_set_no": 999,
        "meta_rev_at_epoch": 325,
        "meta_bstar": 0.0012250247,
        "meta_mean_motion_dot": 0.00182096,
        "meta_mean_motion_ddot": 0,
        "tle_line1": "1 66623U 25271G   25340.58335648  .00182096  00000+0  12250-2 0  9993",
        "tle_line2": "2 66623  53.1575 217.2564 0001211 125.1816 232.6674 15.74111426  3259"
      },
      "geometry": {
        "type": "Point",
        "coordinates": [
          -5.092891498899343,
          41.17250125204067
        ]
      }
    },
    {
      "type": "Feature",
      "properties": {
        "norad_id": 66624,
        "name": "STARLINK-35927",
        "group": "last-30-days",
        "lat": 42.30678830042018,
        "lon": -7.143957622615532,
        "alt_km": 341.07672451550843,
        "timestamp": "2025-12-06T20:37:54.814289+00:00",
        "meta_object_name": "STARLINK-35927",
        "meta_object_id": "2025-271H",
        "meta_epoch": "2025-12-06T14:00:01.999872",
        "meta_mean_motion": 15.74092298,
        "meta_eccentricity": 4.731e-05,
        "meta_inclination": 53.158,
        "meta_ra_of_asc_node": 217.2603,
        "meta_arg_of_pericenter": 86.4979,
        "meta_mean_anomaly": 269.4596,
        "meta_ephemeris_type": 0,
        "meta_classification_type": "U",
        "meta_norad_cat_id": 66624,
        "meta_element_set_no": 999,
        "meta_rev_at_epoch": 325,
        "meta_bstar": 0.0012854436,
        "meta_mean_motion_dot": 0.00191161,
        "meta_mean_motion_ddot": 0,
        "tle_line1": "1 66624U 25271H   25340.58335648  .00191161  00000+0  12854-2 0  9997",
        "tle_line2": "2 66624  53.1580 217.2603 0000473  86.4979 269.4596 15.74092298  3254"
      },
      "geometry": {
        "type": "Point",
        "coordinates": [
          -7.143957622615532,
          42.30678830042018
        ]
      }
    },
    {
      "type": "Feature",
      "properties": {
        "norad_id": 66625,
        "name": "STARLINK-35929",
        "group": "last-30-days",
        "lat": 39.96085408460422,
        "lon": -3.042206533916655,
        "alt_km": 341.0421014278154,
        "timestamp": "2025-12-06T20:37:54.814303+00:00",
        "meta_object_name": "STARLINK-35929",
        "meta_object_id": "2025-271J",
        "meta_epoch": "2025-12-06T14:00:01.999872",
        "meta_mean_motion": 15.74153174,
        "meta_eccentricity": 0.00011357,
        "meta_inclination": 53.1579,
        "meta_ra_of_asc_node": 217.2524,
        "meta_arg_of_pericenter": 99.6254,
        "meta_mean_anomaly": 260.1838,
        "meta_ephemeris_type": 0,
        "meta_classification_type": "U",
        "meta_norad_cat_id": 66625,
        "meta_element_set_no": 999,
        "meta_rev_at_epoch": 325,
        "meta_bstar": 0.00035463718,
        "meta_mean_motion_dot": 0.00051546,
        "meta_mean_motion_ddot": 0,
        "tle_line1": "1 66625U 25271J   25340.58335648  .00051546  00000+0  35464-3 0  9993",
        "tle_line2": "2 66625  53.1579 217.2524 0001135  99.6254 260.1838 15.74153174  3251"
      },
      "geometry": {
        "type": "Point",
        "coordinates": [
          -3.042206533916655,
          39.96085408460422
        ]
      }
    },
    {
      "type": "Feature",
      "properties": {
        "norad_id": 66626,
        "name": "STARLINK-35902",
        "group": "last-30-days",
        "lat": 38.72236778271784,
        "lon": -1.0782124397704815,
        "alt_km": 341.15609786393543,
        "timestamp": "2025-12-06T20:37:54.814313+00:00",
        "meta_object_name": "STARLINK-35902",
        "meta_object_id": "2025-271K",
        "meta_epoch": "2025-12-06T14:00:01.999872",
        "meta_mean_motion": 15.74242537,
        "meta_eccentricity": 0.00010561,
        "meta_inclination": 53.1578,
        "meta_ra_of_asc_node": 217.2478,
        "meta_arg_of_pericenter": 101.5459,
        "meta_mean_anomaly": 260.1573,
        "meta_ephemeris_type": 0,
        "meta_classification_type": "U",
        "meta_norad_cat_id": 66626,
        "meta_element_set_no": 999,
        "meta_rev_at_epoch": 325,
        "meta_bstar": -0.00021287478,
        "meta_mean_motion_dot": -0.0003176,
        "meta_mean_motion_ddot": 0,
        "tle_line1": "1 66626U 25271K   25340.58335648 -.00031760  00000+0 -21287-3 0  9990",
        "tle_line2": "2 66626  53.1578 217.2478 0001056 101.5459 260.1573 15.74242537  3259"
      },
      "geometry": {
        "type": "Point",
        "coordinates": [
          -1.0782124397704815,
          38.72236778271784
        ]
      }
    }
  ]
}